{
  "type": "FeatureCollection",
  "features": [
    {
      "type": "Feature",
      "properties": {
        "source": "MTA DOS Track Linear Referencing System (LRS), data.ny.gov dyuj-5if7, RouteId BMT-A-3; 1684 m straight-line bridge across the DeKalb Ave interlocking / Manhattan Bridge crossing -- see README",
        "route": "DeKalb Av to Times Sq-42 St via Manhattan Bridge, Broadway Express"
      },
      "geometry": {
        "type": "LineString",
        "coordinates": [
          [
            -73.98198542856024,
            40.690588677799916
          ],
          [
            -73.98233952485764,
            40.69130363540853
          ],
          [
            -73.9825766214043,
            40.691841728106844
          ],
          [
            -73.98258480206108,
            40.691860942691235
          ],
          [
            -73.98265341872144,
            40.692021467700094
          ],
          [
            -73.98276394111839,
            40.69224304562502
          ],
          [
            -73.9827711458876,
            40.69225748913117
          ],
          [
            -73.98287004179775,
            40.69245575452772
          ],
          [
            -73.98287406102706,
            40.6924638120154
          ],
          [
            -73.9836704303392,
            40.69406032097118
          ],
          [
            -73.98375701908685,
            40.69433560556922
          ],
          [
            -73.98381305182855,
            40.69451932976958
          ],
          [
            -73.98381420799929,
            40.69452312019028
          ],
          [
            -73.98382050783074,
            40.694543777937575
          ],
          [
            -73.9838833650097,
            40.694689039458666
          ],
          [
            -73.9838846185269,
            40.69469149173029
          ],
          [
            -73.98388620789191,
            40.694694602323764
          ],
          [
            -73.98440374805553,
            40.69570736583602
          ],
          [
            -73.98442677095588,
            40.695772500327685
          ],
          [
            -73.98442706181672,
            40.69577332253504
          ],
          [
            -73.98443870570871,
            40.69580626395981
          ],
          [
            -73.98451958806739,
            40.69614094495833
          ],
          [
            -73.98455767173475,
            40.69628697178416
          ],
          [
            -73.98460668761689,
            40.69641375880647
          ],
          [
            -73.98490129129284,
            40.696989686368596
          ],
          [
            -73.98490561147666,
            40.69699813194101
          ],
          [
            -73.98531937378335,
            40.697806986075264
          ],
          [
            -73.98568005131655,
            40.69861146816236
          ],
          [
            -73.98676979845166,
            40.70056743622099
          ],
          [
            -73.9868664908422,
            40.70074023033722
          ],
          [
            -73.98931971768296,
            40.70512305149385
          ],
          [
            -73.98951179824951,
            40.705438058165505
          ],
          [
            -73.99053595723221,
            40.70730428470153
          ],
          [
            -74.00132714029354,
            40.72005619614298
          ],
          [
            -73.99912549853309,
            40.72265400484669
          ],
          [
            -73.99902328534672,
            40.72277462815839
          ],
          [
            -73.99902289474498,
            40.72277508921586
          ],
          [
            -73.99892029058404,
            40.72289617259118
          ],
          [
            -73.99683139158873,
            40.72536820025354
          ],
          [
            -73.9967711737995,
            40.72543950719185
          ],
          [
            -73.99674328377436,
            40.72547249835668
          ],
          [
            -73.99668378669416,
            40.725542955188104
          ],
          [
            -73.99175050481723,
            40.73138288899265
          ],
          [
            -73.99155790597722,
            40.73163506328759
          ],
          [
            -73.99145082528565,
            40.73184445238008
          ],
          [
            -73.99138985735408,
            40.732042866728136
          ],
          [
            -73.99079405698079,
            40.734774866693684
          ],
          [
            -73.99077307910336,
            40.73487131481408
          ],
          [
            -73.99009533059402,
            40.73798540055222
          ],
          [
            -73.99000584365714,
            40.73844412303642
          ],
          [
            -73.98963348166473,
            40.7398185255015
          ],
          [
            -73.98954136267524,
            40.740219772397126
          ],
          [
            -73.98949010569164,
            40.740541699056394
          ],
          [
            -73.98932198710811,
            40.7418391279202
          ],
          [
            -73.98926345389478,
            40.74251147610707
          ],
          [
            -73.98922255252775,
            40.74282544482856
          ],
          [
            -73.98825473973112,
            40.74801081278893
          ],
          [
            -73.98806826736563,
            40.74918299329327
          ],
          [
            -73.98802462669263,
            40.74941922932666
          ],
          [
            -73.98802440976648,
            40.74942054674447
          ],
          [
            -73.98800537110841,
            40.74952355545081
          ],
          [
            -73.98795439677258,
            40.7497995345147
          ],
          [
            -73.9876884610456,
            40.75123896149068
          ],
          [
            -73.98764810569014,
            40.75145776837357
          ],
          [
            -73.98759467118137,
            40.75174716897625
          ],
          [
            -73.98755263973999,
            40.75196550556526
          ],
          [
            -73.98753186630834,
            40.75207341632142
          ],
          [
            -73.98748364954649,
            40.75232388314846
          ],
          [
            -73.98734856089983,
            40.7528604391792
          ],
          [
            -73.98677124949302,
            40.75467517334438
          ]
        ]
      }
    }
  ]
}