{
  "type": "FeatureCollection",
  "features": [
    {
      "type": "Feature",
      "properties": {
        "source": "MTA DOS Track Linear Referencing System (LRS), data.ny.gov dyuj-5if7, RouteId BMT-A-3; 1684 m straight-line bridge across the DeKalb Ave interlocking / Manhattan Bridge crossing -- see README",
        "route": "Coney Island-Stillwell Av to Times Sq-42 St via Brighton Express, Manhattan Bridge, Broadway Express"
      },
      "geometry": {
        "type": "LineString",
        "coordinates": [
          [
            -73.98094399542688,
            40.57672392102267
          ],
          [
            -73.98090716882002,
            40.57655325475103
          ],
          [
            -73.9808765721159,
            40.57646992054738
          ],
          [
            -73.98085583221213,
            40.57643235622481
          ],
          [
            -73.9807606838639,
            40.57632993180582
          ],
          [
            -73.9806846016253,
            40.57627054927264
          ],
          [
            -73.9806237136635,
            40.57623873790379
          ],
          [
            -73.98042874832706,
            40.57616436567232
          ],
          [
            -73.98030817765414,
            40.57612840064049
          ],
          [
            -73.98018898655687,
            40.57608841217718
          ],
          [
            -73.98009066370112,
            40.57606213138768
          ],
          [
            -73.98006985769786,
            40.576058010582855
          ],
          [
            -73.98000762707066,
            40.5760509801829
          ],
          [
            -73.97999357702784,
            40.576049093840076
          ],
          [
            -73.97989930819446,
            40.57603643402309
          ],
          [
            -73.97963822845828,
            40.57600067865396
          ],
          [
            -73.97939201463983,
            40.57596828071268
          ],
          [
            -73.9793756688113,
            40.57596613002879
          ],
          [
            -73.97911514070518,
            40.575931847727944
          ],
          [
            -73.97904418801429,
            40.57592251077822
          ],
          [
            -73.97803550577778,
            40.57578977417548
          ],
          [
            -73.97764173454806,
            40.575776440694995
          ],
          [
            -73.97734676556465,
            40.57579252210701
          ],
          [
            -73.97695948624337,
            40.57584841177577
          ],
          [
            -73.9766772420938,
            40.575915657311086
          ],
          [
            -73.97489188035242,
            40.5764822682114
          ],
          [
            -73.97488978495743,
            40.576482933240904
          ],
          [
            -73.97483135602161,
            40.57650147575843
          ],
          [
            -73.97468569156557,
            40.57654788559325
          ],
          [
            -73.97437682883427,
            40.576642787313794
          ],
          [
            -73.97409742580442,
            40.57670494998508
          ],
          [
            -73.97381115374873,
            40.576745041262214
          ],
          [
            -73.97342398834985,
            40.57676339779052
          ],
          [
            -73.97313341783965,
            40.57675067603794
          ],
          [
            -73.97048205372984,
            40.57650890010611
          ],
          [
            -73.97044546219709,
            40.57650556326109
          ],
          [
            -73.97042313219954,
            40.57650352683201
          ],
          [
            -73.96958714817778,
            40.57641455468784
          ],
          [
            -73.96845096705832,
            40.57632107373718
          ],
          [
            -73.96799805402021,
            40.57632402375617
          ],
          [
            -73.9675926345182,
            40.576349299489635
          ],
          [
            -73.96735150552733,
            40.57637831364991
          ],
          [
            -73.96735001144044,
            40.57637849333018
          ],
          [
            -73.96733932842331,
            40.57637977894387
          ],
          [
            -73.96708417173599,
            40.576424010117044
          ],
          [
            -73.96387480581805,
            40.5771027453025
          ],
          [
            -73.96336578444745,
            40.57720884598008
          ],
          [
            -73.96290477343746,
            40.57730608344615
          ],
          [
            -73.9628168590538,
            40.577324958831454
          ],
          [
            -73.96266524209068,
            40.57735751043955
          ],
          [
            -73.96039559786367,
            40.577844767954645
          ],
          [
            -73.96012451358222,
            40.57792318278846
          ],
          [
            -73.95991430297033,
            40.578018749811505
          ],
          [
            -73.95974820594351,
            40.57813896035075
          ],
          [
            -73.95964305304247,
            40.57825192484282
          ],
          [
            -73.95944498955726,
            40.57852959117163
          ],
          [
            -73.95918469035674,
            40.57889221572439
          ],
          [
            -73.9590289414395,
            40.579107606189936
          ],
          [
            -73.95879342163565,
            40.57943370981211
          ],
          [
            -73.95730699272185,
            40.58151895996389
          ],
          [
            -73.95476062840018,
            40.58504198291728
          ],
          [
            -73.95454792927487,
            40.58540712165492
          ],
          [
            -73.95444481988805,
            40.58561500002248
          ],
          [
            -73.95435094445747,
            40.585848764812454
          ],
          [
            -73.95428372346608,
            40.58606502854738
          ],
          [
            -73.95423005826115,
            40.5863060557342
          ],
          [
            -73.9541928339688,
            40.586615846220745
          ],
          [
            -73.95416097765707,
            40.58734079007065
          ],
          [
            -73.95409078668294,
            40.58804938755998
          ],
          [
            -73.95408424563226,
            40.58871335255736
          ],
          [
            -73.95412888183694,
            40.58935579113309
          ],
          [
            -73.95419566216326,
            40.58984093327546
          ],
          [
            -73.95444943733003,
            40.59135558812338
          ],
          [
            -73.95722776763402,
            40.60602252016415
          ],
          [
            -73.95724049599536,
            40.606089701127935
          ],
          [
            -73.95728920762915,
            40.606346788503906
          ],
          [
            -73.9573554653216,
            40.606697159311025
          ],
          [
            -73.95739444474313,
            40.606903225755794
          ],
          [
            -73.95748465006304,
            40.60737300281722
          ],
          [
            -73.95751057076944,
            40.60748362618629
          ],
          [
            -73.95752148843569,
            40.60753022051339
          ],
          [
            -73.95765802242413,
            40.608112899413754
          ],
          [
            -73.95782648195436,
            40.60899686743659
          ],
          [
            -73.95796004766356,
            40.60987947789649
          ],
          [
            -73.96148582886569,
            40.62852669143624
          ],
          [
            -73.96181091928723,
            40.62992326633603
          ],
          [
            -73.96228166025257,
            40.63231663058725
          ],
          [
            -73.96452567931757,
            40.64400827044255
          ],
          [
            -73.96457416215513,
            40.64438267402055
          ],
          [
            -73.96458927720418,
            40.64475871343977
          ],
          [
            -73.96457098815493,
            40.64513468852405
          ],
          [
            -73.96451936747985,
            40.645508869384784
          ],
          [
            -73.96443463191191,
            40.64587949913392
          ],
          [
            -73.96382469205045,
            40.647886349895124
          ],
          [
            -73.96360677424933,
            40.64869044801568
          ],
          [
            -73.96344356154427,
            40.64921904156945
          ],
          [
            -73.96209688889516,
            40.653539826035264
          ],
          [
            -73.96181323338314,
            40.654338299156734
          ],
          [
            -73.96156525496356,
            40.655131321799196
          ],
          [
            -73.96142516662867,
            40.65575469655164
          ],
          [
            -73.96138690715952,
            40.65628909281991
          ],
          [
            -73.96142119293896,
            40.65682941448487
          ],
          [
            -73.96166397111934,
            40.65830946714752
          ],
          [
            -73.96171452371655,
            40.65861764711501
          ],
          [
            -73.9617619258203,
            40.65890661347829
          ],
          [
            -73.96182671628266,
            40.659287576061814
          ],
          [
            -73.96182719830277,
            40.65929040744609
          ],
          [
            -73.9618276979981,
            40.65929334779879
          ],
          [
            -73.96187651529323,
            40.659580330723436
          ],
          [
            -73.96194073909786,
            40.65995778461214
          ],
          [
            -73.96194095948928,
            40.65995907692635
          ],
          [
            -73.96199554352982,
            40.66024425885175
          ],
          [
            -73.96199959930101,
            40.660265445743946
          ],
          [
            -73.96200869885601,
            40.660312983415885
          ],
          [
            -73.9621165799642,
            40.66068699540219
          ],
          [
            -73.96215940022437,
            40.66087661864668
          ],
          [
            -73.96248072481133,
            40.66286556384383
          ],
          [
            -73.96254025770384,
            40.66308148742178
          ],
          [
            -73.96261080205056,
            40.663265411096745
          ],
          [
            -73.96270729211106,
            40.663460321331726
          ],
          [
            -73.9628260218068,
            40.66365803837499
          ],
          [
            -73.96526894855178,
            40.66721759963475
          ],
          [
            -73.97006117517417,
            40.673835833987596
          ],
          [
            -73.97007201903327,
            40.6738507961652
          ],
          [
            -73.97632755595458,
            40.68247693617844
          ],
          [
            -73.97653306837488,
            40.68278881189333
          ],
          [
            -73.97666954820704,
            40.68306537580431
          ],
          [
            -73.97672314936283,
            40.683208663844454
          ],
          [
            -73.97677680662146,
            40.683395318821525
          ],
          [
            -73.97682291595206,
            40.68361935618638
          ],
          [
            -73.9770744412168,
            40.68508610326432
          ],
          [
            -73.97716019435684,
            40.685791389193454
          ],
          [
            -73.97736656363907,
            40.68680587032823
          ],
          [
            -73.97737358130813,
            40.68684358431793
          ],
          [
            -73.97737659809574,
            40.68688140828369
          ],
          [
            -73.97738358051211,
            40.686918463990054
          ],
          [
            -73.97739077945039,
            40.68695543779164
          ],
          [
            -73.97739837470637,
            40.68699238375453
          ],
          [
            -73.97745587643433,
            40.6872363504668
          ],
          [
            -73.97752402156776,
            40.6873552117755
          ],
          [
            -73.97760998541159,
            40.687455851917385
          ],
          [
            -73.9777225630629,
            40.68754680852387
          ],
          [
            -73.97787596055807,
            40.68763000414406
          ],
          [
            -73.97803892304333,
            40.687687868138454
          ],
          [
            -73.97835476276059,
            40.68777394863236
          ],
          [
            -73.97846051149872,
            40.687802075302095
          ],
          [
            -73.97855940998332,
            40.687828910162516
          ],
          [
            -73.9787581040195,
            40.68789336614433
          ],
          [
            -73.9789614050345,
            40.687987879063286
          ],
          [
            -73.97899778231083,
            40.68800693426973
          ],
          [
            -73.97906094531176,
            40.68804067901486
          ],
          [
            -73.97922959617722,
            40.68813007923672
          ],
          [
            -73.97930527008945,
            40.688170221551204
          ],
          [
            -73.97931359828684,
            40.68817458693684
          ],
          [
            -73.97986189901172,
            40.68841139315781
          ],
          [
            -73.98102301941775,
            40.68901533069147
          ],
          [
            -73.98112309882292,
            40.68908048038204
          ],
          [
            -73.98120951017906,
            40.68915674369077
          ],
          [
            -73.98134388675837,
            40.68933717979802
          ],
          [
            -73.9814155812145,
            40.68945381417649
          ],
          [
            -73.98142050275315,
            40.68946182053448
          ],
          [
            -73.98145572572624,
            40.68951912137487
          ],
          [
            -73.98233952485764,
            40.69130363540853
          ],
          [
            -73.9825766214043,
            40.691841728106844
          ],
          [
            -73.98258480206108,
            40.691860942691235
          ],
          [
            -73.98265341872144,
            40.692021467700094
          ],
          [
            -73.98276394111839,
            40.69224304562502
          ],
          [
            -73.9827711458876,
            40.69225748913117
          ],
          [
            -73.98287004179775,
            40.69245575452772
          ],
          [
            -73.98287406102706,
            40.6924638120154
          ],
          [
            -73.9836704303392,
            40.69406032097118
          ],
          [
            -73.98375701908685,
            40.69433560556922
          ],
          [
            -73.98381305182855,
            40.69451932976958
          ],
          [
            -73.98381420799929,
            40.69452312019028
          ],
          [
            -73.98382050783074,
            40.694543777937575
          ],
          [
            -73.9838833650097,
            40.694689039458666
          ],
          [
            -73.9838846185269,
            40.69469149173029
          ],
          [
            -73.98388620789191,
            40.694694602323764
          ],
          [
            -73.98440374805553,
            40.69570736583602
          ],
          [
            -73.98442677095588,
            40.695772500327685
          ],
          [
            -73.98442706181672,
            40.69577332253504
          ],
          [
            -73.98443870570871,
            40.69580626395981
          ],
          [
            -73.98451958806739,
            40.69614094495833
          ],
          [
            -73.98455767173475,
            40.69628697178416
          ],
          [
            -73.98460668761689,
            40.69641375880647
          ],
          [
            -73.98490129129284,
            40.696989686368596
          ],
          [
            -73.98490561147666,
            40.69699813194101
          ],
          [
            -73.98531937378335,
            40.697806986075264
          ],
          [
            -73.98568005131655,
            40.69861146816236
          ],
          [
            -73.98676979845166,
            40.70056743622099
          ],
          [
            -73.9868664908422,
            40.70074023033722
          ],
          [
            -73.98931971768296,
            40.70512305149385
          ],
          [
            -73.98951179824951,
            40.705438058165505
          ],
          [
            -73.99053595723221,
            40.70730428470153
          ],
          [
            -74.00132714029354,
            40.72005619614298
          ],
          [
            -73.99912549853309,
            40.72265400484669
          ],
          [
            -73.99902328534672,
            40.72277462815839
          ],
          [
            -73.99902289474498,
            40.72277508921586
          ],
          [
            -73.99892029058404,
            40.72289617259118
          ],
          [
            -73.99683139158873,
            40.72536820025354
          ],
          [
            -73.9967711737995,
            40.72543950719185
          ],
          [
            -73.99674328377436,
            40.72547249835668
          ],
          [
            -73.99668378669416,
            40.725542955188104
          ],
          [
            -73.99175050481723,
            40.73138288899265
          ],
          [
            -73.99155790597722,
            40.73163506328759
          ],
          [
            -73.99145082528565,
            40.73184445238008
          ],
          [
            -73.99138985735408,
            40.732042866728136
          ],
          [
            -73.99079405698079,
            40.734774866693684
          ],
          [
            -73.99077307910336,
            40.73487131481408
          ],
          [
            -73.99009533059402,
            40.73798540055222
          ],
          [
            -73.99000584365714,
            40.73844412303642
          ],
          [
            -73.98963348166473,
            40.7398185255015
          ],
          [
            -73.98954136267524,
            40.740219772397126
          ],
          [
            -73.98949010569164,
            40.740541699056394
          ],
          [
            -73.98932198710811,
            40.7418391279202
          ],
          [
            -73.98926345389478,
            40.74251147610707
          ],
          [
            -73.98922255252775,
            40.74282544482856
          ],
          [
            -73.98825473973112,
            40.74801081278893
          ],
          [
            -73.98806826736563,
            40.74918299329327
          ],
          [
            -73.98802462669263,
            40.74941922932666
          ],
          [
            -73.98802440976648,
            40.74942054674447
          ],
          [
            -73.98800537110841,
            40.74952355545081
          ],
          [
            -73.98795439677258,
            40.7497995345147
          ],
          [
            -73.9876884610456,
            40.75123896149068
          ],
          [
            -73.98764810569014,
            40.75145776837357
          ],
          [
            -73.98759467118137,
            40.75174716897625
          ],
          [
            -73.98755263973999,
            40.75196550556526
          ],
          [
            -73.98753186630834,
            40.75207341632142
          ],
          [
            -73.98748364954649,
            40.75232388314846
          ],
          [
            -73.98734856089983,
            40.7528604391792
          ],
          [
            -73.98677124949302,
            40.75467517334438
          ]
        ]
      }
    }
  ]
}