{
  "type": "FeatureCollection",
  "features": [
    {
      "type": "Feature",
      "properties": {
        "source": "MTA DOS Track Linear Referencing System (LRS), data.ny.gov dyuj-5if7, RouteId IND-B-3",
        "route": "DeKalb Av to 42 St-Bryant Pk via Chrystie St Connection, 6th Ave Express"
      },
      "geometry": {
        "type": "LineString",
        "coordinates": [
          [
            -73.98198542856024,
            40.690588677799916
          ],
          [
            -73.98233952485764,
            40.69130363540853
          ],
          [
            -73.9825766214043,
            40.691841728106844
          ],
          [
            -73.98258480206108,
            40.691860942691235
          ],
          [
            -73.98265341872144,
            40.692021467700094
          ],
          [
            -73.98276394111839,
            40.69224304562502
          ],
          [
            -73.9827711458876,
            40.69225748913117
          ],
          [
            -73.98287004179775,
            40.69245575452772
          ],
          [
            -73.98287406102706,
            40.6924638120154
          ],
          [
            -73.9836704303392,
            40.69406032097118
          ],
          [
            -73.98375701908685,
            40.69433560556922
          ],
          [
            -73.98381305182855,
            40.69451932976958
          ],
          [
            -73.98381420799929,
            40.69452312019028
          ],
          [
            -73.98382050783074,
            40.694543777937575
          ],
          [
            -73.9838833650097,
            40.694689039458666
          ],
          [
            -73.9838846185269,
            40.69469149173029
          ],
          [
            -73.98388620789191,
            40.694694602323764
          ],
          [
            -73.98440374805553,
            40.69570736583602
          ],
          [
            -73.98442677095588,
            40.695772500327685
          ],
          [
            -73.98442706181672,
            40.69577332253504
          ],
          [
            -73.98443870570871,
            40.69580626395981
          ],
          [
            -73.98451958806739,
            40.69614094495833
          ],
          [
            -73.98455767173475,
            40.69628697178416
          ],
          [
            -73.98460668761689,
            40.69641375880647
          ],
          [
            -73.98490129129284,
            40.696989686368596
          ],
          [
            -73.98490561147666,
            40.69699813194101
          ],
          [
            -73.98531937378335,
            40.697806986075264
          ],
          [
            -73.98568005131655,
            40.69861146816236
          ],
          [
            -73.98676979845166,
            40.70056743622099
          ],
          [
            -73.9868664908422,
            40.70074023033722
          ],
          [
            -73.98931971768296,
            40.70512305149385
          ],
          [
            -73.98951179824951,
            40.705438058165505
          ],
          [
            -73.99053595723221,
            40.70730428470153
          ],
          [
            -73.99085706680471,
            40.70788930164392
          ],
          [
            -73.9914060202312,
            40.70883389995032
          ],
          [
            -73.9946677318739,
            40.71477744268215
          ],
          [
            -73.99467387915298,
            40.71478864261392
          ],
          [
            -73.99484975551991,
            40.71513201700563
          ],
          [
            -73.99487268704932,
            40.71526637326544
          ],
          [
            -73.99489031186982,
            40.71592602302301
          ],
          [
            -73.99485916515299,
            40.71613275716615
          ],
          [
            -73.99481406281977,
            40.71627235313186
          ],
          [
            -73.99472927654782,
            40.716451005994635
          ],
          [
            -73.99401205411007,
            40.71777605888628
          ],
          [
            -73.99308385811196,
            40.71959031995958
          ],
          [
            -73.99294858188954,
            40.71987667295558
          ],
          [
            -73.99290517360576,
            40.719973752442066
          ],
          [
            -73.99287774939289,
            40.72003720966896
          ],
          [
            -73.99266705498938,
            40.72049573597714
          ],
          [
            -73.99185732428582,
            40.722079351903226
          ],
          [
            -73.99176487113039,
            40.72228284155483
          ],
          [
            -73.99170946897094,
            40.72248918841535
          ],
          [
            -73.9916924272474,
            40.722593790360776
          ],
          [
            -73.99168833115002,
            40.722751887997994
          ],
          [
            -73.99172012243636,
            40.72297717972444
          ],
          [
            -73.99179488095668,
            40.723211176126966
          ],
          [
            -73.99181904495964,
            40.72327688711179
          ],
          [
            -73.99185932963873,
            40.7233848691391
          ],
          [
            -73.99195974191714,
            40.72361016561138
          ],
          [
            -73.99203296388349,
            40.72373000687398
          ],
          [
            -73.99211571273653,
            40.72383403849979
          ],
          [
            -73.99220733946045,
            40.72392539059515
          ],
          [
            -73.99231087242143,
            40.72400892068841
          ],
          [
            -73.99250942916461,
            40.72412978571765
          ],
          [
            -73.99254997741048,
            40.72414996155599
          ],
          [
            -73.99259793528611,
            40.72417030264977
          ],
          [
            -73.99260005036182,
            40.72417119969293
          ],
          [
            -73.99275398707127,
            40.724236490097795
          ],
          [
            -73.99294094568131,
            40.724300084865675
          ],
          [
            -73.99294499242895,
            40.72430146109174
          ],
          [
            -73.9930058723876,
            40.72432216931349
          ],
          [
            -73.99491076607734,
            40.72490322464884
          ],
          [
            -73.99495339227015,
            40.7249153320692
          ],
          [
            -73.99495795636182,
            40.72491662810176
          ],
          [
            -73.99530606474788,
            40.725015501610706
          ],
          [
            -73.9953495741205,
            40.72502725141808
          ],
          [
            -73.99539308350658,
            40.72503902822431
          ],
          [
            -73.99543659172633,
            40.72505077709817
          ],
          [
            -73.99641241755471,
            40.72531751991804
          ],
          [
            -73.9966813408022,
            40.72540895576829
          ],
          [
            -73.99672625669939,
            40.72542421798122
          ],
          [
            -73.9967711737995,
            40.72543950719185
          ],
          [
            -73.99681609092144,
            40.72545476936967
          ],
          [
            -73.99746022445112,
            40.72567379007941
          ],
          [
            -73.99761598753385,
            40.72573856882509
          ],
          [
            -73.99762032445021,
            40.7257403726344
          ],
          [
            -73.99787194530458,
            40.72584501580684
          ],
          [
            -73.99851138462022,
            40.726164677724164
          ],
          [
            -73.99851943356403,
            40.72616870130204
          ],
          [
            -73.99859693547313,
            40.72620744486977
          ],
          [
            -73.99889458142312,
            40.72637345063408
          ],
          [
            -73.99943994655992,
            40.72665503921706
          ],
          [
            -73.99968044458461,
            40.72677408290991
          ],
          [
            -73.99975342144096,
            40.72681020520252
          ],
          [
            -74.00157851487442,
            40.72771357250242
          ],
          [
            -74.00177230152,
            40.72782078065515
          ],
          [
            -74.00192661663883,
            40.72792565502874
          ],
          [
            -74.0020438415786,
            40.728025479805304
          ],
          [
            -74.00214685308956,
            40.72813411530448
          ],
          [
            -74.0022344224065,
            40.72825046386768
          ],
          [
            -74.00230568413268,
            40.72837318018714
          ],
          [
            -74.0023633812066,
            40.728511350369175
          ],
          [
            -74.00240614200256,
            40.728674854842936
          ],
          [
            -74.00243999296508,
            40.72889984171352
          ],
          [
            -74.0024453035549,
            40.72907141640923
          ],
          [
            -74.002425933838,
            40.72922591888086
          ],
          [
            -74.00238542109963,
            40.729375426664845
          ],
          [
            -74.00234479749436,
            40.72947432044968
          ],
          [
            -74.00217688894016,
            40.72977185537126
          ],
          [
            -74.00215772626586,
            40.72980213262951
          ],
          [
            -74.00215400120754,
            40.729808018422965
          ],
          [
            -74.00215387810424,
            40.729808212935076
          ],
          [
            -74.00184723264496,
            40.73029270894029
          ],
          [
            -74.00183559210808,
            40.73031110021072
          ],
          [
            -74.00176433895628,
            40.730423677488076
          ],
          [
            -74.00129773879328,
            40.73116087948957
          ],
          [
            -74.00115919034853,
            40.73136547556206
          ],
          [
            -74.00108991521564,
            40.7314678000986
          ],
          [
            -74.00000844291924,
            40.73296114415573
          ],
          [
            -73.99999989231675,
            40.73297286426933
          ],
          [
            -73.99999805150414,
            40.73297558110232
          ],
          [
            -73.99999769044442,
            40.732976075481275
          ],
          [
            -73.9999552581918,
            40.733037530649476
          ],
          [
            -73.99987046448001,
            40.733160495868525
          ],
          [
            -73.99969285334657,
            40.733426091387166
          ],
          [
            -73.99967395722764,
            40.73345434837797
          ],
          [
            -73.99963336401323,
            40.73351624287662
          ],
          [
            -73.9994847738054,
            40.73373403828325
          ],
          [
            -73.99940145817123,
            40.73385036010404
          ],
          [
            -73.99936839015471,
            40.73389590312034
          ],
          [
            -73.99935287837096,
            40.73391726668627
          ],
          [
            -73.99843274650276,
            40.73518449402334
          ],
          [
            -73.99824154086917,
            40.73544712707407
          ],
          [
            -73.99686957816144,
            40.737331435530805
          ],
          [
            -73.99681097226188,
            40.73741193749927
          ],
          [
            -73.98815536764045,
            40.74931746765071
          ],
          [
            -73.98815460963566,
            40.749318510358805
          ],
          [
            -73.98800537110841,
            40.74952355545081
          ],
          [
            -73.9879394881797,
            40.74961404312393
          ],
          [
            -73.98778974377537,
            40.7498197731601
          ],
          [
            -73.98703804563206,
            40.75085234710257
          ],
          [
            -73.98683818535045,
            40.751126854453084
          ],
          [
            -73.9867431404508,
            40.75125740699237
          ],
          [
            -73.98663705723433,
            40.75140311908639
          ],
          [
            -73.98644568152534,
            40.75166598678097
          ],
          [
            -73.98624505828579,
            40.75194159069744
          ],
          [
            -73.98604873070329,
            40.752211265844686
          ],
          [
            -73.98581182072067,
            40.752536654442785
          ],
          [
            -73.98552717861065,
            40.75292766269827
          ],
          [
            -73.9846430486617,
            40.75414204380952
          ],
          [
            -73.9846158619605,
            40.75417936883394
          ],
          [
            -73.984581111261,
            40.754227099133836
          ]
        ]
      }
    }
  ]
}